SHIYAN-24C 03           
1 58652U 23206C   26068.89147317  .00001350  00000+0  11928-3 0  9993
2 58652  97.3969  41.7507 0002411  66.6237 293.5240 14.97896938120432
STARLINK-33863          
1 63864U 25094A   26068.85933094  .00011592  00000+0  97754-3 0  9992
2 63864  70.0016 234.2309 0003162 273.2150  86.8647 14.98336062 47224
